{
  "type": "FeatureCollection",
  "features": [
    {
      "type": "Feature",
      "properties": {
        "norad_id": 66614,
        "name": "STARLINK-36040",
        "group": "last-30-days",
        "lat": -42.51494729329509,
        "lon": 124.26825950015011,
        "alt_km": 374.1322143976404,
        "timestamp": "2025-12-07T07:31:35.087003+00:00",
        "meta_object_name": "STARLINK-36040",
        "meta_object_id": "2025-270AC",
        "meta_epoch": "2025-12-06T22:00:01.999584",
        "meta_mean_motion": 15.67149767,
        "meta_eccentricity": 0.00013656,
        "meta_inclination": 42.9993,
        "meta_ra_of_asc_node": 226.942,
        "meta_arg_of_pericenter": 264.9736,
        "meta_mean_anomaly": 276.7157,
        "meta_ephemeris_type": 0,
        "meta_classification_type": "U",
        "meta_norad_cat_id": 66614,
        "meta_element_set_no": 999,
        "meta_rev_at_epoch": 330,
        "meta_bstar": -0.020636531,
        "meta_mean_motion_dot": -0.02001347,
        "meta_mean_motion_ddot": 0,
        "tle_line1": "1 66614U 25270AC  25340.91668981 -.02001347  00000+0 -20637-1 0  9998",
        "tle_line2": "2 66614  42.9993 226.9420 0001365 264.9736 276.7157 15.67149767  3302"
      },
      "geometry": {
        "type": "Point",
        "coordinates": [
          124.26825950015011,
          -42.51494729329509
        ]
      }
    },
    {
      "type": "Feature",
      "properties": {
        "norad_id": 66615,
        "name": "STARLINK-35988",
        "group": "last-30-days",
        "lat": -42.25282572964018,
        "lon": 121.70674517913771,
        "alt_km": 374.17144983415255,
        "timestamp": "2025-12-07T07:31:35.087015+00:00",
        "meta_object_name": "STARLINK-35988",
        "meta_object_id": "2025-270AD",
        "meta_epoch": "2025-12-06T22:00:01.999584",
        "meta_mean_motion": 15.6715197,
        "meta_eccentricity": 0.00012981,
        "meta_inclination": 42.9991,
        "meta_ra_of_asc_node": 226.9473,
        "meta_arg_of_pericenter": 261.5055,
        "meta_mean_anomaly": 278.2658,
        "meta_ephemeris_type": 0,
        "meta_classification_type": "U",
        "meta_norad_cat_id": 66615,
        "meta_element_set_no": 999,
        "meta_rev_at_epoch": 330,
        "meta_bstar": -0.020686297,
        "meta_mean_motion_dot": -0.02005694,
        "meta_mean_motion_ddot": 0,
        "tle_line1": "1 66615U 25270AD  25340.91668981 -.02005694  00000+0 -20686-1 0  9992",
        "tle_line2": "2 66615  42.9991 226.9473 0001298 261.5055 278.2658 15.67151970  3303"
      },
      "geometry": {
        "type": "Point",
        "coordinates": [
          121.70674517913771,
          -42.25282572964018
        ]
      }
    },
    {
      "type": "Feature",
      "properties": {
        "norad_id": 66616,
        "name": "STARLINK-35391",
        "group": "last-30-days",
        "lat": -42.71937027216626,
        "lon": 126.85342040456982,
        "alt_km": 374.2086339739244,
        "timestamp": "2025-12-07T07:31:35.087026+00:00",
        "meta_object_name": "STARLINK-35391",
        "meta_object_id": "2025-270AE",
        "meta_epoch": "2025-12-06T22:00:01.999584",
        "meta_mean_motion": 15.6714895,
        "meta_eccentricity": 0.00012625,
        "meta_inclination": 42.9993,
        "meta_ra_of_asc_node": 226.9378,
        "meta_arg_of_pericenter": 259.8088,
        "meta_mean_anomaly": 283.7958,
        "meta_ephemeris_type": 0,
        "meta_classification_type": "U",
        "meta_norad_cat_id": 66616,
        "meta_element_set_no": 999,
        "meta_rev_at_epoch": 357,
        "meta_bstar": -0.020594765,
        "meta_mean_motion_dot": -0.01997648,
        "meta_mean_motion_ddot": 0,
        "tle_line1": "1 66616U 25270AE  25340.91668981 -.01997648  00000+0 -20595-1 0  9990",
        "tle_line2": "2 66616  42.9993 226.9378 0001262 259.8088 283.7958 15.67148950  3574"
      },
      "geometry": {
        "type": "Point",
        "coordinates": [
          126.85342040456982,
          -42.71937027216626
        ]
      }
    },
    {
      "type": "Feature",
      "properties": {
        "norad_id": 66617,
        "name": "STARLINK-35940",
        "group": "last-30-days",
        "lat": 11.986251511486074,
        "lon": 24.50375171984089,
        "alt_km": 348.25241566410205,
        "timestamp": "2025-12-07T07:31:35.087036+00:00",
        "meta_object_name": "STARLINK-35940",
        "meta_object_id": "2025-271A",
        "meta_epoch": "2025-12-06T22:00:01.999584",
        "meta_mean_motion": 15.74577218,
        "meta_eccentricity": 0.00015189,
        "meta_inclination": 53.1582,
        "meta_ra_of_asc_node": 215.6329,
        "meta_arg_of_pericenter": 76.7176,
        "meta_mean_anomaly": 357.7916,
        "meta_ephemeris_type": 0,
        "meta_classification_type": "U",
        "meta_norad_cat_id": 66617,
        "meta_element_set_no": 999,
        "meta_rev_at_epoch": 330,
        "meta_bstar": -0.010301426,
        "meta_mean_motion_dot": -0.01366172,
        "meta_mean_motion_ddot": 0,
        "tle_line1": "1 66617U 25271A   25340.91668981 -.01366172  00000+0 -10301-1 0  9998",
        "tle_line2": "2 66617  53.1582 215.6329 0001518  76.7176 357.7916 15.74577218  3300"
      },
      "geometry": {
        "type": "Point",
        "coordinates": [
          24.50375171984089,
          11.986251511486074
        ]
      }
    },
    {
      "type": "Feature",
      "properties": {
        "norad_id": 66618,
        "name": "STARLINK-35970",
        "group": "last-30-days",
        "lat": -29.697510080254794,
        "lon": 58.86759540279748,
        "alt_km": 353.47711063877796,
        "timestamp": "2025-12-07T07:31:35.087049+00:00",
        "meta_object_name": "STARLINK-35970",
        "meta_object_id": "2025-271B",
        "meta_epoch": "2025-12-06T22:00:01.999584",
        "meta_mean_motion": 15.74583332,
        "meta_eccentricity": 9.895e-05,
        "meta_inclination": 53.1579,
        "meta_ra_of_asc_node": 215.5201,
        "meta_arg_of_pericenter": 92.2727,
        "meta_mean_anomaly": 35.5624,
        "meta_ephemeris_type": 0,
        "meta_classification_type": "U",
        "meta_norad_cat_id": 66618,
        "meta_element_set_no": 999,
        "meta_rev_at_epoch": 330,
        "meta_bstar": -0.010425575,
        "meta_mean_motion_dot": -0.01380843,
        "meta_mean_motion_ddot": 0,
        "tle_line1": "1 66618U 25271B   25340.91668981 -.01380843  00000+0 -10426-1 0  9998",
        "tle_line2": "2 66618  53.1579 215.5201 0000989  92.2727  35.5624 15.74583332  3302"
      },
      "geometry": {
        "type": "Point",
        "coordinates": [
          58.86759540279748,
          -29.697510080254794
        ]
      }
    },
    {
      "type": "Feature",
      "properties": {
        "norad_id": 66619,
        "name": "STARLINK-35951",
        "group": "last-30-days",
        "lat": 5.8979598401269016,
        "lon": 29.204163128336024,
        "alt_km": 349.3365593633571,
        "timestamp": "2025-12-07T07:31:35.087059+00:00",
        "meta_object_name": "STARLINK-35951",
        "meta_object_id": "2025-271C",
        "meta_epoch": "2025-12-06T22:00:01.999584",
        "meta_mean_motion": 15.74598756,
        "meta_eccentricity": 7.315e-05,
        "meta_inclination": 53.158,
        "meta_ra_of_asc_node": 215.6162,
        "meta_arg_of_pericenter": 85.9058,
        "meta_mean_anomaly": 356.2719,
        "meta_ephemeris_type": 0,
        "meta_classification_type": "U",
        "meta_norad_cat_id": 66619,
        "meta_element_set_no": 999,
        "meta_rev_at_epoch": 330,
        "meta_bstar": -0.010643724,
        "meta_mean_motion_dot": -0.01407157,
        "meta_mean_motion_ddot": 0,
        "tle_line1": "1 66619U 25271C   25340.91668981 -.01407157  00000+0 -10644-1 0  9999",
        "tle_line2": "2 66619  53.1580 215.6162 0000731  85.9058 356.2719 15.74598756  3307"
      },
      "geometry": {
        "type": "Point",
        "coordinates": [
          29.204163128336024,
          5.8979598401269016
        ]
      }
    },
    {
      "type": "Feature",
      "properties": {
        "norad_id": 66620,
        "name": "STARLINK-35936",
        "group": "last-30-days",
        "lat": 10.46825047247049,
        "lon": 25.696129983437203,
        "alt_km": 348.74136928415373,
        "timestamp": "2025-12-07T07:31:35.087069+00:00",
        "meta_object_name": "STARLINK-35936",
        "meta_object_id": "2025-271D",
        "meta_epoch": "2025-12-06T22:00:01.999584",
        "meta_mean_motion": 15.74592982,
        "meta_eccentricity": 0.00013559,
        "meta_inclination": 53.1583,
        "meta_ra_of_asc_node": 215.6288,
        "meta_arg_of_pericenter": 63.0178,
        "meta_mean_anomaly": 13.4099,
        "meta_ephemeris_type": 0,
        "meta_classification_type": "U",
        "meta_norad_cat_id": 66620,
        "meta_element_set_no": 999,
        "meta_rev_at_epoch": 330,
        "meta_bstar": -0.010555829,
        "meta_mean_motion_dot": -0.0139688,
        "meta_mean_motion_ddot": 0,
        "tle_line1": "1 66620U 25271D   25340.91668981 -.01396880  00000+0 -10556-1 0  9993",
        "tle_line2": "2 66620  53.1583 215.6288 0001355  63.0178  13.4099 15.74592982  3302"
      },
      "geometry": {
        "type": "Point",
        "coordinates": [
          25.696129983437203,
          10.46825047247049
        ]
      }
    }
  ]
}